{
  "type": "FeatureCollection",
  "features": [
    {
      "type": "Feature",
      "properties": {
        "norad_id": 41384,
        "name": "IRNSS-1F",
        "group": "gnss",
        "lat": -2.6307833766928095,
        "lon": -45.926553954813386,
        "alt_km": 35708.12775917706,
        "timestamp": "2025-12-04T13:52:00.685604+00:00",
        "meta_object_name": "IRNSS-1F",
        "meta_object_id": "2016-015A",
        "meta_epoch": "2025-12-04T01:07:21.703008",
        "meta_mean_motion": 1.00267997,
        "meta_eccentricity": 0.00224181,
        "meta_inclination": 4.8586,
        "meta_ra_of_asc_node": 101.5153,
        "meta_arg_of_pericenter": 179.6158,
        "meta_mean_anomaly": 201.2266,
        "meta_ephemeris_type": 0,
        "meta_classification_type": "U",
        "meta_norad_cat_id": 41384,
        "meta_element_set_no": 999,
        "meta_rev_at_epoch": 3571,
        "meta_bstar": 0,
        "meta_mean_motion_dot": 1.73e-06,
        "meta_mean_motion_ddot": 0,
        "tle_line1": "1 41384U 16015A   25338.04677897  .00000173  00000+0  00000+0 0  9991",
        "tle_line2": "2 41384   4.8586 101.5153 0022418 179.6158 201.2266  1.00267997 35719"
      },
      "geometry": {
        "type": "Point",
        "coordinates": [
          -45.926553954813386,
          -2.6307833766928095
        ]
      }
    },
    {
      "type": "Feature",
      "properties": {
        "norad_id": 41434,
        "name": "BEIDOU-2 IGSO-6 (C13)",
        "group": "gnss",
        "lat": -22.265302956453652,
        "lon": 26.336326216996326,
        "alt_km": 35848.274314580965,
        "timestamp": "2025-12-04T13:52:00.685623+00:00",
        "meta_object_name": "BEIDOU-2 IGSO-6 (C13)",
        "meta_object_id": "2016-021A",
        "meta_epoch": "2025-12-01T15:57:35.287200",
        "meta_mean_motion": 1.00256562,
        "meta_eccentricity": 0.00591323,
        "meta_inclination": 59.9483,
        "meta_ra_of_asc_node": 40.0119,
        "meta_arg_of_pericenter": 231.2834,
        "meta_mean_anomaly": 130.8807,
        "meta_ephemeris_type": 0,
        "meta_classification_type": "U",
        "meta_norad_cat_id": 41434,
        "meta_element_set_no": 999,
        "meta_rev_at_epoch": 3550,
        "meta_bstar": 0,
        "meta_mean_motion_dot": -1.55e-06,
        "meta_mean_motion_ddot": 0,
        "tle_line1": "1 41434U 16021A   25335.66499175 -.00000155  00000+0  00000+0 0  9991",
        "tle_line2": "2 41434  59.9483  40.0119 0059132 231.2834 130.8807  1.00256562 35501"
      },
      "geometry": {
        "type": "Point",
        "coordinates": [
          26.336326216996326,
          -22.265302956453652
        ]
      }
    },
    {
      "type": "Feature",
      "properties": {
        "norad_id": 41469,
        "name": "IRNSS-1G",
        "group": "gnss",
        "lat": -3.6389621813867135,
        "lon": 51.27239395609762,
        "alt_km": 35774.542380451305,
        "timestamp": "2025-12-04T13:52:00.685643+00:00",
        "meta_object_name": "IRNSS-1G",
        "meta_object_id": "2016-027A",
        "meta_epoch": "2025-12-04T07:29:36.995136",
        "meta_mean_motion": 1.00289319,
        "meta_eccentricity": 0.00028917,
        "meta_inclination": 4.7123,
        "meta_ra_of_asc_node": 102.3108,
        "meta_arg_of_pericenter": 3.3434,
        "meta_mean_anomaly": 209.6873,
        "meta_ephemeris_type": 0,
        "meta_classification_type": "U",
        "meta_norad_cat_id": 41469,
        "meta_element_set_no": 999,
        "meta_rev_at_epoch": 3522,
        "meta_bstar": 0,
        "meta_mean_motion_dot": -3.19e-06,
        "meta_mean_motion_ddot": 0,
        "tle_line1": "1 41469U 16027A   25338.31223374 -.00000319  00000+0  00000+0 0  9998",
        "tle_line2": "2 41469   4.7123 102.3108 0002891   3.3434 209.6873  1.00289319 35225"
      },
      "geometry": {
        "type": "Point",
        "coordinates": [
          51.27239395609762,
          -3.6389621813867135
        ]
      }
    },
    {
      "type": "Feature",
      "properties": {
        "norad_id": 41549,
        "name": "GSAT0211 (GALILEO 14)",
        "group": "gnss",
        "lat": -29.20836945170524,
        "lon": -155.83531596900346,
        "alt_km": 23218.17390103903,
        "timestamp": "2025-12-04T13:52:00.685661+00:00",
        "meta_object_name": "GSAT0211 (GALILEO 14)",
        "meta_object_id": "2016-030A",
        "meta_epoch": "2025-12-01T16:54:04.942368",
        "meta_mean_motion": 1.70472896,
        "meta_eccentricity": 0.00038995,
        "meta_inclination": 55.1563,
        "meta_ra_of_asc_node": 227.1275,
        "meta_arg_of_pericenter": 10.5053,
        "meta_mean_anomaly": 349.5828,
        "meta_ephemeris_type": 0,
        "meta_classification_type": "U",
        "meta_norad_cat_id": 41549,
        "meta_element_set_no": 999,
        "meta_rev_at_epoch": 5930,
        "meta_bstar": 0,
        "meta_mean_motion_dot": 3.3e-07,
        "meta_mean_motion_ddot": 0,
        "tle_line1": "1 41549U 16030A   25335.70422387  .00000033  00000+0  00000+0 0  9998",
        "tle_line2": "2 41549  55.1563 227.1275 0003899  10.5053 349.5828  1.70472896 59309"
      },
      "geometry": {
        "type": "Point",
        "coordinates": [
          -155.83531596900346,
          -29.20836945170524
        ]
      }
    },
    {
      "type": "Feature",
      "properties": {
        "norad_id": 41550,
        "name": "GSAT0210 (GALILEO 13)",
        "group": "gnss",
        "lat": 11.796183782291742,
        "lon": 38.696931672679874,
        "alt_km": 23220.069353852767,
        "timestamp": "2025-12-04T13:52:00.685683+00:00",
        "meta_object_name": "GSAT0210 (GALILEO 13)",
        "meta_object_id": "2016-030B",
        "meta_epoch": "2025-12-03T03:14:10.364352",
        "meta_mean_motion": 1.70473449,
        "meta_eccentricity": 0.00012228,
        "meta_inclination": 55.1551,
        "meta_ra_of_asc_node": 227.0861,
        "meta_arg_of_pericenter": 241.4534,
        "meta_mean_anomaly": 118.6225,
        "meta_ephemeris_type": 0,
        "meta_classification_type": "U",
        "meta_norad_cat_id": 41550,
        "meta_element_set_no": 999,
        "meta_rev_at_epoch": 5932,
        "meta_bstar": 0,
        "meta_mean_motion_dot": 3.9e-07,
        "meta_mean_motion_ddot": 0,
        "tle_line1": "1 41550U 16030B   25337.13484218  .00000039  00000+0  00000+0 0  9996",
        "tle_line2": "2 41550  55.1551 227.0861 0001222 241.4534 118.6225  1.70473449 59328"
      },
      "geometry": {
        "type": "Point",
        "coordinates": [
          38.696931672679874,
          11.796183782291742
        ]
      }
    },
    {
      "type": "Feature",
      "properties": {
        "norad_id": 41586,
        "name": "BEIDOU-2 G7 (C03)",
        "group": "gnss",
        "lat": -0.9858531683846561,
        "lon": 32.09986785646501,
        "alt_km": 35772.147861474805,
        "timestamp": "2025-12-04T13:52:00.685701+00:00",
        "meta_object_name": "BEIDOU-2 G7 (C03)",
        "meta_object_id": "2016-037A",
        "meta_epoch": "2025-12-03T19:25:06.201984",
        "meta_mean_motion": 1.00271395,
        "meta_eccentricity": 0.00043865,
        "meta_inclination": 1.7336,
        "meta_ra_of_asc_node": 67.6984,
        "meta_arg_of_pericenter": 4.1798,
        "meta_mean_anomaly": 42.7772,
        "meta_ephemeris_type": 0,
        "meta_classification_type": "U",
        "meta_norad_cat_id": 41586,
        "meta_element_set_no": 999,
        "meta_rev_at_epoch": 493,
        "meta_bstar": 0,
        "meta_mean_motion_dot": -3.37e-06,
        "meta_mean_motion_ddot": 0,
        "tle_line1": "1 41586U 16037A   25337.80909956 -.00000337  00000+0  00000+0 0  9999",
        "tle_line2": "2 41586   1.7336  67.6984 0004386   4.1798  42.7772  1.00271395  4939"
      },
      "geometry": {
        "type": "Point",
        "coordinates": [
          32.09986785646501,
          -0.9858531683846561
        ]
      }
    },
    {
      "type": "Feature",
      "properties": {
        "norad_id": 41589,
        "name": "EUTELSAT 117 WEST B (WAAS/PRN 131)",
        "group": "gnss",
        "lat": 0.006667120972204277,
        "lon": 164.63144670164732,
        "alt_km": 35786.55935677463,
        "timestamp": "2025-12-04T13:52:00.685723+00:00",
        "meta_object_name": "EUTELSAT 117 WEST B (WAAS/PRN 131)",
        "meta_object_id": "2016-038B",
        "meta_epoch": "2025-12-04T02:38:16.325088",
        "meta_mean_motion": 1.0026993,
        "meta_eccentricity": 1.619e-05,
        "meta_inclination": 0.0084,
        "meta_ra_of_asc_node": 141.8858,
        "meta_arg_of_pericenter": 294.8653,
        "meta_mean_anomaly": 279.0065,
        "meta_ephemeris_type": 0,
        "meta_classification_type": "U",
        "meta_norad_cat_id": 41589,
        "meta_element_set_no": 999,
        "meta_rev_at_epoch": 3470,
        "meta_bstar": 0,
        "meta_mean_motion_dot": 5e-08,
        "meta_mean_motion_ddot": 0,
        "tle_line1": "1 41589U 16038B   25338.10991117  .00000005  00000+0  00000+0 0  9998",
        "tle_line2": "2 41589   0.0084 141.8858 0000161 294.8653 279.0065  1.00269930 34704"
      },
      "geometry": {
        "type": "Point",
        "coordinates": [
          164.63144670164732,
          0.006667120972204277
        ]
      }
    }
  ]
}